start=new Date('2022-12-20T00:00:00.000Z').valueOf();
sats=[{"TIME_SYSTEM":"UTC","MEAN_MOTION_DDOT":"0.0000000000000","REF_FRAME":"TEME","RA_OF_ASC_NODE":"250.0172","LAUNCH_DATE":"2021-02-04","CENTER_NAME":"EARTH","REV_AT_EPOCH":"10431","DECAY_DATE":null,"ECCENTRICITY":"0.00013300","GP_ID":"220973214","PERIAPSIS":"546.289","FILE":"3711823","MEAN_MOTION":"15.06401072","MEAN_MOTION_DOT":"0.00001851","CLASSIFICATION_TYPE":"U","TLE_LINE2":"2 47571  53.0547 250.0172 0001330  70.8667 289.2465 15.06401072104319","COUNTRY_CODE":"US","MEAN_ANOMALY":"289.2465","EPHEMERIS_TYPE":"0","SEMIMAJOR_AXIS":"6925.345","OBJECT_ID":"2021-009Z","SITE":"AFETR","TLE_LINE1":"1 47571U 21009Z   22353.88616156  .00001851  00000-0  14309-3 0  9997","INCLINATION":"53.0547","ELEMENT_SET_NO":"999","RCS_SIZE":"LARGE","OBJECT_NAME":"STARLINK-1970","MEAN_ELEMENT_THEORY":"SGP4","PERIOD":"95.592","OBJECT_TYPE":"PAYLOAD","BSTAR":"0.00014309000000","ARG_OF_PERICENTER":"70.8667","EPOCH":"2022-12-19T21:16:04.358784","APOAPSIS":"548.131","NORAD_CAT_ID":"47571"},{"LAUNCH_DATE":"2021-02-04","MEAN_MOTION_DDOT":"0.0000000000000","RA_OF_ASC_NODE":"249.5023","REF_FRAME":"TEME","REV_AT_EPOCH":"10433","CENTER_NAME":"EARTH","TIME_SYSTEM":"UTC","TLE_LINE2":"2 47572  53.0546 249.5023 0001431 117.6081 242.5053 15.06406892104331","MEAN_ANOMALY":"242.5053","COUNTRY_CODE":"US","SEMIMAJOR_AXIS":"6925.327","OBJECT_ID":"2021-009AA","EPHEMERIS_TYPE":"0","ECCENTRICITY":"0.00014310","DECAY_DATE":null,"CLASSIFICATION_TYPE":"U","GP_ID":"220973208","PERIAPSIS":"546.201","FILE":"3711823","MEAN_MOTION":"15.06406892","MEAN_MOTION_DOT":"0.00001329","OBJECT_NAME":"STARLINK-1971","MEAN_ELEMENT_THEORY":"SGP4","PERIOD":"95.592","ELEMENT_SET_NO":"999","RCS_SIZE":"LARGE","SITE":"AFETR","TLE_LINE1":"1 47572U 21009AA  22354.00042276  .00001329  00000-0  10807-3 0  9998","INCLINATION":"53.0546","BSTAR":"0.00010807000000","OBJECT_TYPE":"PAYLOAD","APOAPSIS":"548.183","NORAD_CAT_ID":"47572","ARG_OF_PERICENTER":"117.6081","EPOCH":"2022-12-20T00:00:36.526464"},{"MEAN_ANOMALY":"280.6560","COUNTRY_CODE":"US","TLE_LINE2":"2 47573  53.0539 249.5824 0001324  79.4578 280.6560 15.06401106104328","OBJECT_ID":"2021-009AB","SEMIMAJOR_AXIS":"6925.345","EPHEMERIS_TYPE":"0","ECCENTRICITY":"0.00013240","DECAY_DATE":null,"CLASSIFICATION_TYPE":"U","MEAN_MOTION_DOT":"0.00002678","GP_ID":"220973207","FILE":"3711823","PERIAPSIS":"546.293","MEAN_MOTION":"15.06401106","LAUNCH_DATE":"2021-02-04","RA_OF_ASC_NODE":"249.5824","MEAN_MOTION_DDOT":"0.0000000000000","REF_FRAME":"TEME","REV_AT_EPOCH":"10432","CENTER_NAME":"EARTH","TIME_SYSTEM":"UTC","BSTAR":"0.00019857000000","OBJECT_TYPE":"PAYLOAD","APOAPSIS":"548.127","NORAD_CAT_ID":"47573","EPOCH":"2022-12-19T23:28:46.227648","ARG_OF_PERICENTER":"79.4578","PERIOD":"95.592","MEAN_ELEMENT_THEORY":"SGP4","OBJECT_NAME":"STARLINK-1975","RCS_SIZE":"LARGE","ELEMENT_SET_NO":"999","SITE":"AFETR","TLE_LINE1":"1 47573U 21009AB  22353.97831282  .00002678  00000-0  19857-3 0  9999","INCLINATION":"53.0539"},{"TLE_LINE2":"2 47574  53.0558 283.9961 0001744  76.9178 283.2006 15.06399665103158","MEAN_ANOMALY":"283.2006","COUNTRY_CODE":"US","SEMIMAJOR_AXIS":"6925.350","OBJECT_ID":"2021-009AC","EPHEMERIS_TYPE":"0","ECCENTRICITY":"0.00017440","DECAY_DATE":null,"CLASSIFICATION_TYPE":"U","FILE":"3711365","GP_ID":"220934446","MEAN_MOTION":"15.06399665","PERIAPSIS":"546.007","MEAN_MOTION_DOT":"0.00000859","LAUNCH_DATE":"2021-02-04","MEAN_MOTION_DDOT":"0.0000000000000","RA_OF_ASC_NODE":"283.9961","REF_FRAME":"TEME","REV_AT_EPOCH":"10315","CENTER_NAME":"EARTH","TIME_SYSTEM":"UTC","OBJECT_TYPE":"PAYLOAD","BSTAR":"0.00007656400000","NORAD_CAT_ID":"47574","APOAPSIS":"548.422","ARG_OF_PERICENTER":"76.9178","EPOCH":"2022-12-18T23:58:14.490912","OBJECT_NAME":"STARLINK-1976","MEAN_ELEMENT_THEORY":"SGP4","PERIOD":"95.592","ELEMENT_SET_NO":"999","RCS_SIZE":"LARGE","TLE_LINE1":"1 47574U 21009AC  22352.99877883  .00000859  00000-0  76564-4 0  9996","SITE":"AFETR","INCLINATION":"53.0558"},{"DECAY_DATE":null,"ECCENTRICITY":"0.00015020","MEAN_MOTION_DOT":"0.00004802","FILE":"3711823","GP_ID":"220973210","MEAN_MOTION":"15.06410533","PERIAPSIS":"546.141","CLASSIFICATION_TYPE":"U","COUNTRY_CODE":"US","MEAN_ANOMALY":"281.4058","TLE_LINE2":"2 47575  53.0557 280.1769 0001502  78.7100 281.4058 15.06410533103885","EPHEMERIS_TYPE":"0","OBJECT_ID":"2021-009AD","SEMIMAJOR_AXIS":"6925.316","TIME_SYSTEM":"UTC","MEAN_MOTION_DDOT":"0.0000000000000","REF_FRAME":"TEME","RA_OF_ASC_NODE":"280.1769","LAUNCH_DATE":"2021-02-04","CENTER_NAME":"EARTH","REV_AT_EPOCH":"10388","OBJECT_TYPE":"PAYLOAD","BSTAR":"0.00034095000000","EPOCH":"2022-12-19T20:24:18.784224","ARG_OF_PERICENTER":"78.7100","NORAD_CAT_ID":"47575","APOAPSIS":"548.221","TLE_LINE1":"1 47575U 21009AD  22353.85021741  .00004802  00000-0  34095-3 0  9991","SITE":"AFETR","INCLINATION":"53.0557","RCS_SIZE":"LARGE","ELEMENT_SET_NO":"999","PERIOD":"95.591","MEAN_ELEMENT_THEORY":"SGP4","OBJECT_NAME":"STARLINK-1977"},{"EPOCH":"2022-12-19T16:25:29.240544","ARG_OF_PERICENTER":"75.2185","APOAPSIS":"548.316","NORAD_CAT_ID":"47576","OBJECT_TYPE":"PAYLOAD","BSTAR":"0.00011569000000","INCLINATION":"53.0540","TLE_LINE1":"1 47576U 21009AE  22353.68436621  .00001442  00000-0  11569-3 0  9998","SITE":"AFETR","RCS_SIZE":"LARGE","ELEMENT_SET_NO":"999","PERIOD":"95.593","MEAN_ELEMENT_THEORY":"SGP4","OBJECT_NAME":"STARLINK-1978","MEAN_MOTION_DOT":"0.00001442","GP_ID":"220966109","MEAN_MOTION":"15.06391648","FILE":"3711774","PERIAPSIS":"546.162","CLASSIFICATION_TYPE":"U","DECAY_DATE":null,"ECCENTRICITY":"0.00015550","EPHEMERIS_TYPE":"0","OBJECT_ID":"2021-009AE","SEMIMAJOR_AXIS":"6925.374","COUNTRY_CODE":"US","MEAN_ANOMALY":"284.8976","TLE_LINE2":"2 47576  53.0540 240.9263 0001555  75.2185 284.8976 15.06391648103829","TIME_SYSTEM":"UTC","REV_AT_EPOCH":"10382","CENTER_NAME":"EARTH","MEAN_MOTION_DDOT":"0.0000000000000","REF_FRAME":"TEME","RA_OF_ASC_NODE":"240.9263","LAUNCH_DATE":"2021-02-04"},{"NORAD_CAT_ID":"47577","APOAPSIS":"548.176","ARG_OF_PERICENTER":"77.6522","EPOCH":"2022-12-19T23:46:40.625472","BSTAR":"0.00021565000000","OBJECT_TYPE":"PAYLOAD","INCLINATION":"53.0546","TLE_LINE1":"1 47577U 21009AF  22353.99074798  .00002933  00000-0  21565-3 0  9999","SITE":"AFETR","OBJECT_NAME":"STARLINK-1979","MEAN_ELEMENT_THEORY":"SGP4","PERIOD":"95.592","ELEMENT_SET_NO":"999","RCS_SIZE":"LARGE","CLASSIFICATION_TYPE":"U","FILE":"3711842","GP_ID":"220973223","PERIAPSIS":"546.218","MEAN_MOTION":"15.06405477","MEAN_MOTION_DOT":"0.00002933","ECCENTRICITY":"0.00014140","DECAY_DATE":null,"SEMIMAJOR_AXIS":"6925.332","OBJECT_ID":"2021-009AF","EPHEMERIS_TYPE":"0","TLE_LINE2":"2 47577  53.0546 254.5496 0001414  77.6522 282.4625 15.06405477104260","COUNTRY_CODE":"US","MEAN_ANOMALY":"282.4625","TIME_SYSTEM":"UTC","CENTER_NAME":"EARTH","REV_AT_EPOCH":"10426","LAUNCH_DATE":"2021-02-04","RA_OF_ASC_NODE":"254.5496","MEAN_MOTION_DDOT":"0.0000000000000","REF_FRAME":"TEME"},{"RA_OF_ASC_NODE":"263.7471","MEAN_MOTION_DDOT":"0.0000000000000","REF_FRAME":"TEME","LAUNCH_DATE":"2021-02-04","REV_AT_EPOCH":"10344","CENTER_NAME":"EARTH","TIME_SYSTEM":"UTC","TLE_LINE2":"2 47578  53.0551 263.7471 0001379  67.8425 292.2710 15.06393515103447","COUNTRY_CODE":"US","MEAN_ANOMALY":"292.2710","EPHEMERIS_TYPE":"0","SEMIMAJOR_AXIS":"6925.368","OBJECT_ID":"2021-009AG","DECAY_DATE":null,"ECCENTRICITY":"0.00013790","MEAN_MOTION":"15.06393515","GP_ID":"220933946","FILE":"3711365","PERIAPSIS":"546.278","MEAN_MOTION_DOT":"0.00001066","CLASSIFICATION_TYPE":"U","ELEMENT_SET_NO":"999","RCS_SIZE":"LARGE","OBJECT_NAME":"STARLINK-1980","MEAN_ELEMENT_THEORY":"SGP4","PERIOD":"95.593","TLE_LINE1":"1 47578U 21009AG  22353.05590796  .00001066  00000-0  90458-4 0  9992","SITE":"AFETR","INCLINATION":"53.0551","BSTAR":"0.00009045800000","OBJECT_TYPE":"PAYLOAD","ARG_OF_PERICENTER":"67.8425","EPOCH":"2022-12-19T01:20:30.447744","APOAPSIS":"548.188","NORAD_CAT_ID":"47578"},{"INCLINATION":"53.0547","TLE_LINE1":"1 47579U 21009AH  22353.90091498  .00002057  00000-0  15700-3 0  9999","SITE":"AFETR","PERIOD":"95.593","MEAN_ELEMENT_THEORY":"SGP4","OBJECT_NAME":"STARLINK-1981","RCS_SIZE":"LARGE","ELEMENT_SET_NO":"999","APOAPSIS":"548.353","NORAD_CAT_ID":"47579","EPOCH":"2022-12-19T21:37:19.054272","ARG_OF_PERICENTER":"61.9489","OBJECT_TYPE":"PAYLOAD","BSTAR":"0.00015700000000","TIME_SYSTEM":"UTC","CENTER_NAME":"EARTH","REV_AT_EPOCH":"10431","LAUNCH_DATE":"2021-02-04","MEAN_MOTION_DDOT":"0.0000000000000","REF_FRAME":"TEME","RA_OF_ASC_NODE":"249.9510","CLASSIFICATION_TYPE":"U","MEAN_MOTION_DOT":"0.00002057","GP_ID":"220972886","PERIAPSIS":"546.119","FILE":"3711842","MEAN_MOTION":"15.06392761","ECCENTRICITY":"0.00016130","DECAY_DATE":null,"OBJECT_ID":"2021-009AH","SEMIMAJOR_AXIS":"6925.371","EPHEMERIS_TYPE":"0","MEAN_ANOMALY":"298.1663","COUNTRY_CODE":"US","TLE_LINE2":"2 47579  53.0547 249.9510 0001613  61.9489 298.1663 15.06392761104310"},{"ELEMENT_SET_NO":"999","RCS_SIZE":"LARGE","MEAN_ELEMENT_THEORY":"SGP4","OBJECT_NAME":"STARLINK-1982","PERIOD":"95.591","TLE_LINE1":"1 47580U 21009AJ  22353.92209730  .00004704  00000-0  33441-3 0  9996","SITE":"AFETR","INCLINATION":"53.0533","OBJECT_TYPE":"PAYLOAD","BSTAR":"0.00033441000000","ARG_OF_PERICENTER":"74.7338","EPOCH":"2022-12-19T22:07:49.206720","NORAD_CAT_ID":"47580","APOAPSIS":"548.352","MEAN_MOTION_DDOT":"0.0000000000000","REF_FRAME":"TEME","RA_OF_ASC_NODE":"259.8383","LAUNCH_DATE":"2021-02-04","REV_AT_EPOCH":"10417","CENTER_NAME":"EARTH","TIME_SYSTEM":"UTC","TLE_LINE2":"2 47580  53.0533 259.8383 0001691  74.7338 285.3838 15.06410554104173","COUNTRY_CODE":"US","MEAN_ANOMALY":"285.3838","EPHEMERIS_TYPE":"0","SEMIMAJOR_AXIS":"6925.316","OBJECT_ID":"2021-009AJ","DECAY_DATE":null,"ECCENTRICITY":"0.00016910","FILE":"3711842","GP_ID":"220972884","MEAN_MOTION":"15.06410554","PERIAPSIS":"546.010","MEAN_MOTION_DOT":"0.00004704","CLASSIFICATION_TYPE":"U"}];
